{"type": "FeatureCollection", "features": [ {"type": "Feature", "properties": {"norad_id": 42741, "name": "EUTELSAT 172B", "group": "eutelsat", "lat": 0.0002810354449841289, "lon": -155.5265240418065, "alt_km": 35786.93405934592, "timestamp": "2025-12-13T20:38:50.666847+00:00", "meta": {"OBJECT_NAME": "EUTELSAT 172B", "OBJECT_ID": "2017-029B", "EPOCH": "2025-12-13T07:23:38.817024", "MEAN_MOTION": 1.00270678, "ECCENTRICITY": 1.343e-05, "INCLINATION": 0.0368, "RA_OF_ASC_NODE": 140.3237, "ARG_OF_PERICENTER": 243.4005, "MEAN_ANOMALY": 341.416, "EPHEMERIS_TYPE": 0, "CLASSIFICATION_TYPE": "U", "NORAD_CAT_ID": 42741, "ELEMENT_SET_NO": 999, "REV_AT_EPOCH": 3186, "BSTAR": 0, "MEAN_MOTION_DOT": 8e-08, "MEAN_MOTION_DDOT": 0}, "tle": {"line1": "1 42741U 17029B   25347.30808816  .00000008  00000+0  00000+0 0  9998", "line2": "2 42741   0.0368 140.3237 0000134 243.4005 341.4160  1.00270678 31861"}}, "geometry": {"type": "Point", "coordinates": [-155.5265240418065, 0.0002810354449841289]}}, {"type": "Feature", "properties": {"norad_id": 44334, "name": "EUTELSAT 7C", "group": "eutelsat", "lat": -0.026363188945479676, "lon": 39.488925228351775, "alt_km": 35798.39274948298, "timestamp": "2025-12-13T20:38:50.666859+00:00", "meta": {"OBJECT_NAME": "EUTELSAT 7C", "OBJECT_ID": "2019-034B", "EPOCH": "2025-12-12T20:21:46.603584", "MEAN_MOTION": 1.00271857, "ECCENTRICITY": 0.00032214, "INCLINATION": 0.0717, "RA_OF_ASC_NODE": 176.4232, "ARG_OF_PERICENTER": 67.4743, "MEAN_ANOMALY": 150.3191, "EPHEMERIS_TYPE": 0, "CLASSIFICATION_TYPE": "U", "NORAD_CAT_ID": 44334, "ELEMENT_SET_NO": 999, "REV_AT_EPOCH": 496, "BSTAR": 0, "MEAN_MOTION_DOT": 6.1e-07, "MEAN_MOTION_DDOT": 0}, "tle": {"line1": "1 44334U 19034B   25346.84845606  .00000061  00000+0  00000+0 0  9991", "line2": "2 44334   0.0717 176.4232 0003221  67.4743 150.3191  1.00271857  4969"}}, "geometry": {"type": "Point", "coordinates": [39.488925228351775, -0.026363188945479676]}}, {"type": "Feature", "properties": {"norad_id": 44624, "name": "EUTELSAT 5 WEST B", "group": "eutelsat", "lat": 0.052976736680384814, "lon": 27.520627766219757, "alt_km": 35793.970213317014, "timestamp": "2025-12-13T20:38:50.666870+00:00", "meta": {"OBJECT_NAME": "EUTELSAT 5 WEST B", "OBJECT_ID": "2019-067A", "EPOCH": "2025-12-13T04:51:58.605696", "MEAN_MOTION": 1.00272027, "ECCENTRICITY": 0.00033108, "INCLINATION": 0.062, "RA_OF_ASC_NODE": 350.2117, "ARG_OF_PERICENTER": 272.6359, "MEAN_ANOMALY": 247.2845, "EPHEMERIS_TYPE": 0, "CLASSIFICATION_TYPE": "U", "NORAD_CAT_ID": 44624, "ELEMENT_SET_NO": 999, "REV_AT_EPOCH": 2257, "BSTAR": 0, "MEAN_MOTION_DOT": -2.8e-07, "MEAN_MOTION_DDOT": 0}, "tle": {"line1": "1 44624U 19067A   25347.20276164 -.00000028  00000+0  00000+0 0  9991", "line2": "2 44624   0.0620 350.2117 0003310 272.6359 247.2845  1.00272027 22579"}}, "geometry": {"type": "Point", "coordinates": [27.520627766219757, 0.052976736680384814]}}, {"type": "Feature", "properties": {"norad_id": 45027, "name": "EUTELSAT KONNECT", "group": "eutelsat", "lat": -0.03659038777762151, "lon": 39.6970755505113, "alt_km": 35789.38735868729, "timestamp": "2025-12-13T20:38:50.666882+00:00", "meta": {"OBJECT_NAME": "EUTELSAT KONNECT", "OBJECT_ID": "2020-005B", "EPOCH": "2025-12-13T04:55:20.784288", "MEAN_MOTION": 1.00268485, "ECCENTRICITY": 0.00014754, "INCLINATION": 0.0695, "RA_OF_ASC_NODE": 96.5414, "ARG_OF_PERICENTER": 190.4624, "MEAN_ANOMALY": 236.1731, "EPHEMERIS_TYPE": 0, "CLASSIFICATION_TYPE": "U", "NORAD_CAT_ID": 45027, "ELEMENT_SET_NO": 999, "REV_AT_EPOCH": 2247, "BSTAR": 0, "MEAN_MOTION_DOT": 6.3e-07, "MEAN_MOTION_DDOT": 0}, "tle": {"line1": "1 45027U 20005B   25347.20510167  .00000063  00000+0  00000+0 0  9995", "line2": "2 45027   0.0695  96.5414 0001475 190.4624 236.1731  1.00268485 22474"}}, "geometry": {"type": "Point", "coordinates": [39.6970755505113, -0.03659038777762151]}}, {"type": "Feature", "properties": {"norad_id": 49056, "name": "EUTELSAT QUANTUM", "group": "eutelsat", "lat": 0.028834757797178243, "lon": 80.20607446751389, "alt_km": 35800.404102342654, "timestamp": "2025-12-13T20:38:50.666893+00:00", "meta": {"OBJECT_NAME": "EUTELSAT QUANTUM", "OBJECT_ID": "2021-069B", "EPOCH": "2025-12-13T05:06:42.196032", "MEAN_MOTION": 1.00273002, "ECCENTRICITY": 0.00036011, "INCLINATION": 0.0237, "RA_OF_ASC_NODE": 41.9339, "ARG_OF_PERICENTER": 233.0027, "MEAN_ANOMALY": 291.5908, "EPHEMERIS_TYPE": 0, "CLASSIFICATION_TYPE": "U", "NORAD_CAT_ID": 49056, "ELEMENT_SET_NO": 999, "REV_AT_EPOCH": 1606, "BSTAR": 0, "MEAN_MOTION_DOT": 1.39e-06, "MEAN_MOTION_DDOT": 0}, "tle": {"line1": "1 49056U 21069B   25347.21298838  .00000139  00000+0  00000+0 0  9995", "line2": "2 49056   0.0237  41.9339 0003601 233.0027 291.5908  1.00273002 16066"}}, "geometry": {"type": "Point", "coordinates": [80.20607446751389, 0.028834757797178243]}}, {"type": "Feature", "properties": {"norad_id": 53765, "name": "EUTELSAT KONNECT VHTS", "group": "eutelsat", "lat": -0.03930222133822208, "lon": 35.21951298680384, "alt_km": 35795.10184476836, "timestamp": "2025-12-13T20:38:50.666905+00:00", "meta": {"OBJECT_NAME": "EUTELSAT KONNECT VHTS", "OBJECT_ID": "2022-110A", "EPOCH": "2025-12-12T23:45:57.918816", "MEAN_MOTION": 1.00271501, "ECCENTRICITY": 0.00023835, "INCLINATION": 0.0657, "RA_OF_ASC_NODE": 101.0037, "ARG_OF_PERICENTER": 141.1037, "MEAN_ANOMALY": 199.031, "EPHEMERIS_TYPE": 0, "CLASSIFICATION_TYPE": "U", "NORAD_CAT_ID": 53765, "ELEMENT_SET_NO": 999, "REV_AT_EPOCH": 495, "BSTAR": 0, "MEAN_MOTION_DOT": 3e-07, "MEAN_MOTION_DDOT": 0}, "tle": {"line1": "1 53765U 22110A   25346.99025369  .00000030  00000+0  00000+0 0  9996", "line2": "2 53765   0.0657 101.0037 0002383 141.1037 199.0310  1.00271501  4959"}}, "geometry": {"type": "Point", "coordinates": [35.21951298680384, -0.03930222133822208]}}, {"type": "Feature", "properties": {"norad_id": 54048, "name": "EUTELSAT HOTBIRD 13F", "group": "eutelsat", "lat": 0.05998788303420529, "lon": 45.50651625054075, "alt_km": 35779.39079224333, "timestamp": "2025-12-13T20:38:50.666917+00:00", "meta": {"OBJECT_NAME": "EUTELSAT HOTBIRD 13F", "OBJECT_ID": "2022-134A", "EPOCH": "2025-12-13T03:14:22.955424", "MEAN_MOTION": 1.00271144, "ECCENTRICITY": 0.00023613, "INCLINATION": 0.0474, "RA_OF_ASC_NODE": 293.4876, "ARG_OF_PERICENTER": 65.1353, "MEAN_ANOMALY": 145.0433, "EPHEMERIS_TYPE": 0, "CLASSIFICATION_TYPE": "U", "NORAD_CAT_ID": 54048, "ELEMENT_SET_NO": 999, "REV_AT_EPOCH": 1151, "BSTAR": 0, "MEAN_MOTION_DOT": 1e-06, "MEAN_MOTION_DDOT": 0}, "tle": {"line1": "1 54048U 22134A   25347.13498791  .00000100  00000+0  00000+0 0  9995", "line2": "2 54048   0.0474 293.4876 0002361  65.1353 145.0433  1.00271144 11510"}}, "geometry": {"type": "Point", "coordinates": [45.50651625054075, 0.05998788303420529]}}, {"type": "Feature", "properties": {"norad_id": 54225, "name": "EUTELSAT HOTBIRD 13G", "group": "eutelsat", "lat": 0.024927752375545068, "lon": 45.46110099651412, "alt_km": 35791.3032176569, "timestamp": "2025-12-13T20:38:50.666928+00:00", "meta": {"OBJECT_NAME": "EUTELSAT HOTBIRD 13G", "OBJECT_ID": "2022-146A", "EPOCH": "2025-12-13T04:57:05.616000", "MEAN_MOTION": 1.00270754, "ECCENTRICITY": 0.00017587, "INCLINATION": 0.0481, "RA_OF_ASC_NODE": 233.9548, "ARG_OF_PERICENTER": 303.9875, "MEAN_ANOMALY": 351.4617, "EPHEMERIS_TYPE": 0, "CLASSIFICATION_TYPE": "U", "NORAD_CAT_ID": 54225, "ELEMENT_SET_NO": 999, "REV_AT_EPOCH": 560, "BSTAR": 0, "MEAN_MOTION_DOT": 1.01e-06, "MEAN_MOTION_DDOT": 0}, "tle": {"line1": "1 54225U 22146A   25347.20631500  .00000101  00000+0  00000+0 0  9991", "line2": "2 54225   0.0481 233.9548 0001758 303.9875 351.4617  1.00270754  5607"}}, "geometry": {"type": "Point", "coordinates": [45.46110099651412, 0.024927752375545068]}}, {"type": "Feature", "properties": {"norad_id": 54259, "name": "EUTELSAT 10B", "group": "eutelsat", "lat": -0.029481812221067504, "lon": 42.44502971821259, "alt_km": 35787.310639334726, "timestamp": "2025-12-13T20:38:50.666940+00:00", "meta": {"OBJECT_NAME": "EUTELSAT 10B", "OBJECT_ID": "2022-157A", "EPOCH": "2025-12-12T23:47:57.727104", "MEAN_MOTION": 1.00270562, "ECCENTRICITY": 6.838e-05, "INCLINATION": 0.062, "RA_OF_ASC_NODE": 99.0663, "ARG_OF_PERICENTER": 52.9272, "MEAN_ANOMALY": 296.8936, "EPHEMERIS_TYPE": 0, "CLASSIFICATION_TYPE": "U", "NORAD_CAT_ID": 54259, "ELEMENT_SET_NO": 999, "REV_AT_EPOCH": 1116, "BSTAR": 0, "MEAN_MOTION_DOT": 8.1e-07, "MEAN_MOTION_DDOT": 0}, "tle": {"line1": "1 54259U 22157A   25346.99164036  .00000081  00000+0  00000+0 0  9997", "line2": "2 54259   0.0620  99.0663 0000683  52.9272 296.8936  1.00270562 11167"}}, "geometry": {"type": "Point", "coordinates": [42.44502971821259, -0.029481812221067504]}}, {"type": "Feature", "properties": {"norad_id": 59346, "name": "EUTELSAT 36D", "group": "eutelsat", "lat": 0.03842355100554898, "lon": 68.32673064070113, "alt_km": 35785.71976450011, "timestamp": "2025-12-13T20:38:50.666951+00:00", "meta": {"OBJECT_NAME": "EUTELSAT 36D", "OBJECT_ID": "2024-059A", "EPOCH": "2025-12-12T22:12:41.090112", "MEAN_MOTION": 1.00269446, "ECCENTRICITY": 6.864e-05, "INCLINATION": 0.0196, "RA_OF_ASC_NODE": 350.3258, "ARG_OF_PERICENTER": 5.8335, "MEAN_ANOMALY": 94.714, "EPHEMERIS_TYPE": 0, "CLASSIFICATION_TYPE": "U", "NORAD_CAT_ID": 59346, "ELEMENT_SET_NO": 999, "REV_AT_EPOCH": 628, "BSTAR": 0, "MEAN_MOTION_DOT": 0, "MEAN_MOTION_DDOT": 0}, "tle": {"line1": "1 59346U 24059A   25346.92547558  .00000000  00000+0  00000+0 0  9990", "line2": "2 59346   0.0196 350.3258 0000686   5.8335  94.7140  1.00269446  6288"}}, "geometry": {"type": "Point", "coordinates": [68.32673064070113, 0.03842355100554898]}}]}